NORAD_CAT_ID,OBJECT_NAME,OBJECT_TYPE,EPOCH,MEAN_MOTION,ECCENTRICITY,INCLINATION,RA_OF_ASC_NODE,ARG_OF_PERICENTER,MEAN_ANOMALY,BSTAR,MEAN_MOTION_DOT,MEAN_MOTION_DDOT,TLE_LINE0,TLE_LINE1,TLE_LINE2,SEMIMAJOR_AXIS,PERIOD,APOGEE,PERIGEE,DECAYED
52841.0,STARLINK-4065,PAYLOAD,2023-03-21 02:42:51,15.08844866,0.0001137,53.2141,222.9735,90.4776,269.6347,0.00033824,5.1e-05,0.0,0 STARLINK-4065,1 52841U 22062M   23080.11309080  .00005100  00000-0  33824-3 0  9996,2 52841  53.2141 222.9735 0001137  90.4776 269.6347 15.08844866 42051,6917.866,95.437,540.517,538.944,0.0
52841.0,STARLINK-4065,PAYLOAD,2023-03-21 13:50:33,15.08845204,0.0001487,53.215,220.892,83.3161,276.8,0.00026621,3.952e-05,0.0,0 STARLINK-4065,1 52841U 22062M   23080.57677196  .00003952  00000-0  26621-3 0  9992,2 52841  53.2150 220.8920 0001487  83.3161 276.8000 15.08845204 42122,6917.864,95.437,540.758,538.701,0.0
52841.0,STARLINK-4065,PAYLOAD,2023-03-22 02:33:37,15.08848625,0.0001341,53.2156,218.5137,85.9481,274.1665,0.00031419,4.717e-05,0.0,0 STARLINK-4065,1 52841U 22062M   23081.10668957  .00004717  00000-0  31419-3 0  9998,2 52841  53.2156 218.5137 0001341  85.9481 274.1665 15.08848625 42694,6917.854,95.437,540.647,538.791,0.0
52841.0,STARLINK-4065,PAYLOAD,2023-03-22 13:41:20,15.0883653,0.000183,53.2161,216.4339,84.4381,275.682,1.4347e-05,-6e-07,0.0,0 STARLINK-4065,1 52841U 22062M   23081.57037555 -.00000060  00000-0  14347-4 0  9993,2 52841  53.2161 216.4339 0001830  84.4381 275.6820 15.08836530 42766,6917.891,95.438,541.022,538.49,0.0
52841.0,STARLINK-4065,PAYLOAD,2023-03-22 15:16:43,15.0883892,0.0001568,53.2151,216.1339,95.8078,264.3093,2.1475e-05,5.4e-07,0.0,0 STARLINK-4065,1 52841U 22062M   23081.63661331  .00000054  00000-0  21475-4 0  9997,2 52841  53.2151 216.1339 0001568  95.8078 264.3093 15.08838920 42288,6917.884,95.438,540.833,538.664,0.0
52841.0,STARLINK-4065,PAYLOAD,2023-03-23 13:32:07,15.08841388,0.0001453,53.2137,211.9737,68.0728,292.0419,0.00011614,1.561e-05,0.0,0 STARLINK-4065,1 52841U 22062M   23082.56397625  .00001561  00000-0  11614-3 0  9999,2 52841  53.2137 211.9737 0001453  68.0728 292.0419 15.08841388 42422,6917.876,95.437,540.746,538.736,0.0
52841.0,STARLINK-4065,PAYLOAD,2023-03-23 15:07:30,15.08848246,0.0001426,53.2148,211.6705,101.9002,258.215,0.00023739,3.493e-05,0.0,0 STARLINK-4065,1 52841U 22062M   23082.63021071  .00003493  00000-0  23739-3 0  9993,2 52841  53.2148 211.6705 0001426 101.9002 258.2150 15.08848246 42929,6917.855,95.437,540.707,538.734,0.0
52841.0,STARLINK-4065,PAYLOAD,2023-03-24 11:47:29,15.088744,0.0001362,53.2144,207.8053,107.492,252.6221,0.00056648,8.747e-05,0.0,0 STARLINK-4065,1 52841U 22062M   23083.49130961  .00008747  00000-0  56648-3 0  9999,2 52841  53.2144 207.8053 0001362 107.4920 252.6221 15.08874400 43050,6917.775,95.435,540.582,538.698,0.0
52841.0,STARLINK-4065,PAYLOAD,2023-03-24 13:22:51,15.08898613,0.0001445,53.2146,207.5089,104.8599,255.2553,0.0011038,0.00017351,0.0,0 STARLINK-4065,1 52841U 22062M   23083.55754501  .00017351  00000-0  11038-2 0  9992,2 52841  53.2146 207.5089 0001445 104.8599 255.2553 15.08898613 42578,6917.701,95.434,540.566,538.567,0.0
52841.0,STARLINK-4065,PAYLOAD,2023-03-24 14:58:14,15.08901185,0.0001282,53.2138,207.211,100.9606,259.153,0.0011139,0.00017514,0.0,0 STARLINK-4065,1 52841U 22062M   23083.62378197  .00017514  00000-0  11139-2 0  9996,2 52841  53.2138 207.2110 0001282 100.9606 259.1530 15.08901185 43079,6917.693,95.434,540.445,538.672,0.0
52841.0,STARLINK-4065,PAYLOAD,2023-03-24 18:09:00,15.08909466,0.0001065,53.2135,206.6174,90.8004,269.311,0.0011567,0.00018204,0.0,0 STARLINK-4065,1 52841U 22062M   23083.75625394  .00018204  00000-0  11567-2 0  9996,2 52841  53.2135 206.6174 0001065  90.8004 269.3110 15.08909466 42602,6917.668,95.433,540.27,538.796,0.0
52841.0,STARLINK-4065,PAYLOAD,2023-03-25 11:38:20,15.08777856,0.0001559,53.2146,203.3462,107.8315,252.2847,-0.0011646,-0.00018743,0.0,0 STARLINK-4065,1 52841U 22062M   23084.48495376 -.00018743  00000-0 -11646-2 0  9990,2 52841  53.2146 203.3462 0001559 107.8315 252.2847 15.08777856 43201,6918.07,95.441,541.014,538.857,0.0
52841.0,STARLINK-4065,PAYLOAD,2023-03-25 17:59:53,15.08764568,0.000117,53.2144,202.1558,95.527,264.5855,-0.0012146,-0.00019526,0.0,0 STARLINK-4065,1 52841U 22062M   23084.74992874 -.00019526  00000-0 -12146-2 0  9990,2 52841  53.2144 202.1558 0001170  95.5270 264.5855 15.08764568 42754,6918.111,95.442,540.785,539.167,0.0
52841.0,STARLINK-4065,PAYLOAD,2023-03-26 00:21:24,15.08837076,7.36e-05,53.2156,200.971,125.2497,234.8564,0.00028834,4.304e-05,0.0,0 STARLINK-4065,1 52841U 22062M   23085.01486327  .00004304  00000-0  28834-3 0  9990,2 52841  53.2156 200.9710 0000736 125.2497 234.8564 15.08837076 43283,6917.889,95.438,540.263,539.245,0.0
52841.0,STARLINK-4065,PAYLOAD,2023-03-26 17:50:38,15.08836399,0.0001334,53.2153,197.699,102.3266,257.7876,0.00034869,5.265e-05,0.0,0 STARLINK-4065,1 52841U 22062M   23085.74350357  .00005265  00000-0  34869-3 0  9995,2 52841  53.2153 197.6990 0001334 102.3266 257.7876 15.08836399 42902,6917.891,95.438,540.679,538.834,0.0
52841.0,STARLINK-4065,PAYLOAD,2023-03-27 12:55:16,15.08856788,0.0001357,53.2144,194.1303,100.5518,259.5627,0.00085103,0.00013288,0.0,0 STARLINK-4065,1 52841U 22062M   23086.53838513  .00013288  00000-0  85103-3 0  9999,2 52841  53.2144 194.1303 0001357 100.5518 259.5627 15.08856788 43513,6917.829,95.436,540.633,538.755,0.0
52841.0,STARLINK-4065,PAYLOAD,2023-03-27 14:30:39,15.0886243,0.0001368,53.2147,193.8334,96.9007,263.214,0.00089016,0.00013916,0.0,0 STARLINK-4065,1 52841U 22062M   23086.60462310  .00013916  00000-0  89016-3 0  9990,2 52841  53.2147 193.8334 0001368  96.9007 263.2140 15.08862430 43039,6917.812,95.436,540.623,538.73,0.0
52841.0,STARLINK-4065,PAYLOAD,2023-03-27 19:16:47,15.0889113,0.0001378,53.2135,192.9388,96.7442,263.3707,0.00077444,0.00012076,0.0,0 STARLINK-4065,1 52841U 22062M   23086.80332672  .00012076  00000-0  77444-3 0  9997,2 52841  53.2135 192.9388 0001378  96.7442 263.3707 15.08891130 43553,6917.724,95.434,540.542,538.636,0.0
52841.0,STARLINK-4065,PAYLOAD,2023-03-28 00:02:57,15.08808592,9.84e-05,53.2142,192.0502,181.0074,179.0916,-0.0021497,-0.00034308,0.0,0 STARLINK-4065,1 52841U 22062M   23087.00205808 -.00034308  00000-0 -21497-2 0  9990,2 52841  53.2142 192.0502 0000984 181.0074 179.0916 15.08808592 43589,6917.976,95.44,540.522,539.161,0.0
52841.0,STARLINK-4065,PAYLOAD,2023-03-28 14:21:28,15.0879559,0.000126,53.2133,189.3725,119.8658,240.2459,0.0014593,0.00022985,0.0,0 STARLINK-4065,1 52841U 22062M   23087.59824114  .00022985  00000-0  14593-2 0  9996,2 52841  53.2133 189.3725 0001260 119.8658 240.2459 15.08795590 43182,6918.016,95.44,540.753,539.009,0.0
52841.0,STARLINK-4065,PAYLOAD,2023-03-28 15:56:51,15.087996,0.0001222,53.2134,189.0754,121.0784,239.0328,0.0019287,0.00030507,0.0,0 STARLINK-4065,1 52841U 22062M   23087.66448277  .00030507  00000-0  19287-2 0  9990,2 52841  53.2134 189.0754 0001222 121.0784 239.0328 15.08799600 43193,6918.004,95.44,540.714,539.023,0.0
52841.0,STARLINK-4065,PAYLOAD,2023-03-28 23:53:47,15.08846321,0.0001189,53.2134,187.5897,125.3596,234.7507,0.0032369,0.00051614,0.0,0 STARLINK-4065,1 52841U 22062M   23087.99568391  .00051614  00000-0  32369-2 0  9994,2 52841  53.2134 187.5897 0001189 125.3596 234.7507 15.08846321 43738,6917.861,95.437,540.549,538.904,0.0
52841.0,STARLINK-4065,PAYLOAD,2023-03-29 12:36:51,15.089037,0.0001166,53.2132,185.2104,121.9008,238.2098,0.0032719,0.00052262,0.0,0 STARLINK-4065,1 52841U 22062M   23088.52559059  .00052262  00000-0  32719-2 0  9994,2 52841  53.2132 185.2104 0001166 121.9008 238.2098 15.08903700 43321,6917.686,95.434,540.357,538.744,0.0
52841.0,STARLINK-4065,PAYLOAD,2023-03-29 15:47:36,15.08916031,0.0001163,53.2133,184.6157,119.9993,240.1115,0.0032097,0.00051273,0.0,0 STARLINK-4065,1 52841U 22062M   23088.65806468  .00051273  00000-0  32097-2 0  9997,2 52841  53.2133 184.6157 0001163 119.9993 240.1115 15.08916031 43345,6917.648,95.433,540.318,538.708,0.0
52841.0,STARLINK-4065,PAYLOAD,2023-03-30 06:06:04,15.08865624,0.0001212,53.2135,181.9392,92.7097,267.4034,0.00064425,9.987e-05,0.0,0 STARLINK-4065,1 52841U 22062M   23089.25422078  .00009987  00000-0  64425-3 0  9991,2 52841  53.2135 181.9392 0001212  92.7097 267.4034 15.08865624 43923,6917.802,95.436,540.506,538.829,0.0
52841.0,STARLINK-4065,PAYLOAD,2023-03-30 12:27:37,15.0887265,9.49e-05,53.2138,180.7497,92.3122,267.7979,0.0023742,0.00037734,0.0,0 STARLINK-4065,1 52841U 22062M   23089.51917912  .00037734  00000-0  23742-2 0  9993,2 52841  53.2138 180.7497 0000949  92.3122 267.7979 15.08872650 43478,6917.781,95.435,540.302,538.989,0.0
52841.0,STARLINK-4065,PAYLOAD,2023-03-31 05:56:51,15.08849786,0.0001216,53.2146,177.4802,82.5614,277.5516,0.0034426,0.00054943,0.0,0 STARLINK-4065,1 52841U 22062M   23090.24782063  .00054943  00000-0  34426-2 0  9994,2 52841  53.2146 177.4802 0001216  82.5614 277.5516 15.08849786 44072,6917.85,95.437,540.557,538.874,0.0
52841.0,STARLINK-4065,PAYLOAD,2023-03-31 12:18:23,15.08862311,0.0001175,53.2146,176.2881,105.2525,254.8597,0.0022327,0.00035446,0.0,0 STARLINK-4065,1 52841U 22062M   23090.51277701  .00035446  00000-0  22327-2 0  9996,2 52841  53.2146 176.2881 0001175 105.2525 254.8597 15.08862311 44115,6917.812,95.436,540.49,538.864,0.0
52841.0,STARLINK-4065,PAYLOAD,2023-04-01 05:47:38,15.08833345,0.0001732,53.2144,173.0154,125.6445,234.4709,0.0010406,0.00016309,0.0,0 STARLINK-4065,1 52841U 22062M   23091.24142226  .00016309  00000-0  10406-2 0  9992,2 52841  53.2144 173.0154 0001732 125.6445 234.4709 15.08833345 44223,6917.901,95.438,540.964,538.568,0.0
52841.0,STARLINK-4065,PAYLOAD,2023-04-01 10:33:48,15.0882393,0.0001342,53.2148,172.1236,115.0721,245.0411,0.001264,0.00019877,0.0,0 STARLINK-4065,1 52841U 22062M   23091.44014735  .00019877  00000-0  12640-2 0  9992,2 52841  53.2148 172.1236 0001342 115.0721 245.0411 15.08823930 43760,6917.93,95.439,540.723,538.866,0.0
